     3.00           N                   E                   RINEX VERSION / TYPE
BRD_USR             ESA                 20190104 021746  UTCPGM / RUN BY / DATE
 GAL   3.7750E+01 -1.9531E-02  1.4648E-03  0.0000E+00       IONOSPHERIC CORR
GAUT  2.7939677238E-09-1.776356839E-15 345600 2034 GSTB   0 TIME SYSTEM CORR
GPGA -3.0559021980E-09-1.154631946E-14 432000 2034 GSTB   0 TIME SYSTEM CORR
                                                            END OF HEADER
E07 2019 01 04 00 20 00-1.059698406607E-04-7.091216502886E-12 0.000000000000E+00
     8.200000000000E+01 5.625000000000E-01 3.759085152414E-09-1.791629201713E+00
     0.000000000000E+00 1.521804369986E-04 3.803521394730E-06 5.440606548309E+03
     4.332000000000E+05 1.862645149231E-08 1.365997607489E+00 1.117587089539E-08
     9.521890670224E-01 2.541562500000E+02 1.173839600502E-01-5.858101156284E-09
     1.042900583853E-10 2.580000000000E+02 2.034000000000E+03 0.000000000000E+00
     3.120000000000E+00 0.000000000000E+00 2.328306436539E-10 0.000000000000E+00
     4.339000000000E+05 0.000000000000E+00 0.000000000000E+00 0.000000000000E+00
E08 2019 01 04 00 20 00 6.430405424908E-03-7.432277016051E-12 0.000000000000E+00
     8.200000000000E+01 6.750000000000E+00 3.653009305358E-09-1.396675542354E+00
     3.688037395477E-07 2.388294087723E-04 3.719702363014E-06 5.440604194641E+03
     4.332000000000E+05-2.793967723846E-08 1.357343899919E+00 3.725290298462E-09
     9.581298061808E-01 2.562187500000E+02 5.090928349257E-01-5.783812347571E-09
     1.650068731986E-10 2.580000000000E+02 2.034000000000E+03 0.000000000000E+00
     3.120000000000E+00 0.000000000000E+00-8.381903171539E-09 0.000000000000E+00
     4.339000000000E+05 0.000000000000E+00 0.000000000000E+00 0.000000000000E+00
E09 2019 01 04 00 20 00 6.568809738383E-03-1.131184035330E-11 0.000000000000E+00
     8.200000000000E+01 1.343750000000E+00 3.638365838256E-09 1.308236757998E+00
    -1.862645149231E-09 2.584509784356E-04 4.034489393234E-06 5.440603174210E+03
     4.332000000000E+05-3.725290298462E-09 1.357342036161E+00-1.862645149231E-08
     9.581611082390E-01 2.517812500000E+02 1.591250826898E-01-5.710952169795E-09
     7.357449324439E-11 2.580000000000E+02 2.034000000000E+03 0.000000000000E+00
     3.120000000000E+00 0.000000000000E+00-3.259629011154E-09 0.000000000000E+00
     4.339000000000E+05 0.000000000000E+00 0.000000000000E+00 0.000000000000E+00
E11 2019 01 04 00 20 00 5.718914559111E-03 1.136868377216E-12 0.000000000000E+00
     8.200000000000E+01-2.144375000000E+02 2.679754479673E-09-2.368337693331E+00
    -9.920448064804E-06 2.373907482252E-04 7.655471563339E-06 5.440609161377E+03
     4.332000000000E+05 3.539025783539E-08-7.392233442137E-01 2.048909664154E-08
     9.820249945171E-01 1.840312500000E+02-3.518607389721E-01-5.455227232111E-09
    -3.125130174216E-10 2.580000000000E+02 2.034000000000E+03 0.000000000000E+00
     3.120000000000E+00 0.000000000000E+00-1.839362084866E-08 0.000000000000E+00
     4.339000000000E+05 0.000000000000E+00 0.000000000000E+00 0.000000000000E+00
E14 2019 01 04 00 20 00 6.465142592788E-03-5.627498467220E-12 0.000000000000E+00
     8.200000000000E+01-1.738125000000E+02 5.194502086148E-09 1.999585957387E+00
    -9.307637810707E-06 1.663742803503E-01-9.912997484207E-06 5.289391622543E+03
     4.332000000000E+05 3.470107913017E-06-1.339215809680E+00-1.579523086548E-06
     8.825769806567E-01 5.365937500000E+02 1.451467452268E+00-6.740637917483E-09
    -7.107438910502E-11 2.580000000000E+02 2.034000000000E+03 0.000000000000E+00
     3.120000000000E+00 5.600000000000E+01 3.306195139885E-08 0.000000000000E+00
     4.339000000000E+05 0.000000000000E+00 0.000000000000E+00 0.000000000000E+00
E18 2019 01 04 00 20 00 5.632844229694E-03-2.845013113983E-11 0.000000000000E+00
     8.200000000000E+01-3.584375000000E+01 4.685552314918E-09-1.172121085765E+00
    -6.891787052155E-08 1.664121039212E-01 4.433095455170E-06 5.289341276169E+03
     4.332000000000E+05 8.419156074524E-07-1.322003446179E+00 5.749985575676E-06
     8.817850870083E-01 2.521562500000E+02 1.435992147454E+00-6.916002364973E-09
    -1.310768884500E-09 2.580000000000E+02 2.034000000000E+03 0.000000000000E+00
     3.120000000000E+00 5.600000000000E+01 1.420266926289E-08 0.000000000000E+00
     4.339000000000E+05 0.000000000000E+00 0.000000000000E+00 0.000000000000E+00
E21 2019 01 04 00 20 00-5.126671167091E-04-1.847411112976E-12 0.000000000000E+00
     8.200000000000E+01 1.835312500000E+02 2.534034124121E-09 2.127074649563E+00
     8.620321750641E-06 4.843389615417E-05 8.225440979004E-06 5.440638011932E+03
     4.332000000000E+05-4.470348358154E-08-2.827556662193E+00 5.774199962616E-08
     9.899066295159E-01 1.784687500000E+02-3.754030114880E-01-5.294506251723E-09
     1.953652806053E-10 2.580000000000E+02 2.034000000000E+03 0.000000000000E+00
     3.120000000000E+00 0.000000000000E+00-2.561137080193E-09 0.000000000000E+00
     4.339000000000E+05 0.000000000000E+00 0.000000000000E+00 0.000000000000E+00
E25 2019 01 04 00 20 00 1.934420899488E-03-1.135447291745E-11 0.000000000000E+00
     8.200000000000E+01 2.089375000000E+02 2.604037040024E-09-3.972473583756E-03
     9.670853614807E-06 2.195782726631E-04 8.735805749893E-06 5.440633361816E+03
     4.332000000000E+05 6.705522537231E-08-2.827565005215E+00-2.607703208923E-08
     9.899118770031E-01 1.668437500000E+02-1.384418954286E+00-5.363794852157E-09
     2.100087477073E-10 2.580000000000E+02 2.034000000000E+03 0.000000000000E+00
     3.120000000000E+00 0.000000000000E+00-1.164153218269E-09 0.000000000000E+00
     4.339000000000E+05 0.000000000000E+00 0.000000000000E+00 0.000000000000E+00
E27 2019 01 04 00 20 00 5.568937631324E-04-7.645439836779E-12 0.000000000000E+00
     8.200000000000E+01 1.785625000000E+02 2.593679465732E-09-2.818827235446E+00
     8.460134267807E-06 2.091667847708E-04 8.387491106987E-06 5.440637905121E+03
     4.332000000000E+05-1.341104507446E-07-2.827539973224E+00 8.754432201385E-08
     9.898788530904E-01 1.749062500000E+02-9.258702798592E-01-5.367723587233E-09
     1.753644474903E-10 2.580000000000E+02 2.034000000000E+03 0.000000000000E+00
     3.120000000000E+00 0.000000000000E+00-3.026798367500E-09 0.000000000000E+00
     4.339000000000E+05 0.000000000000E+00 0.000000000000E+00 0.000000000000E+00
E31 2019 01 04 00 20 00 9.416835964657E-04-9.734435479913E-12 0.000000000000E+00
     8.200000000000E+01 2.082500000000E+02 2.533676966387E-09 1.719788267490E+00
     9.670853614807E-06 2.582623856142E-04 7.815659046173E-06 5.440636077881E+03
     4.332000000000E+05 5.215406417847E-08-2.827589042422E+00 9.313225746155E-09
     9.898823538533E-01 1.895625000000E+02-1.537474006581E+00-5.305578141483E-09
     2.225092684042E-10 2.580000000000E+02 2.034000000000E+03 0.000000000000E+00
     3.120000000000E+00 0.000000000000E+00-2.328306436539E-10 0.000000000000E+00
     4.339000000000E+05 0.000000000000E+00 0.000000000000E+00 0.000000000000E+00
E33 2019 01 04 00 20 00 8.478626841679E-04 5.684341886081E-14 0.000000000000E+00
     8.200000000000E+01-1.789062500000E+02 2.587964941985E-09 3.808938740787E-01
    -8.367002010345E-06 3.515661228448E-04 7.810071110725E-06 5.440598415375E+03
     4.332000000000E+05-1.862645149231E-09-7.445641816296E-01-5.587935447693E-09
     9.852632382943E-01 1.865937500000E+02-1.526826144175E+00-5.373080953246E-09
    -3.182275411687E-10 2.580000000000E+02 2.034000000000E+03 0.000000000000E+00
     3.120000000000E+00 5.600000000000E+01-8.149072527885E-09 0.000000000000E+00
     4.339000000000E+05 0.000000000000E+00 0.000000000000E+00 0.000000000000E+00
E04 2019 01 04 00 20 00-1.927104312927E-04-7.844391802792E-12 0.000000000000E+00
     8.200000000000E+01 1.187500000000E+00 3.732655480083E-09 4.244308208245E-01
     5.587935447693E-08 8.637097198516E-05 3.894791007042E-06 5.440601638794E+03
     4.332000000000E+05 2.048909664154E-08 1.366047349630E+00 7.450580596924E-09
     9.521897209467E-01 2.500000000000E+02 1.832413233606E+00-5.792384133192E-09
     6.000249934494E-11 2.580000000000E+02 2.034000000000E+03 0.000000000000E+00
     3.120000000000E+00 0.000000000000E+00-7.916241884232E-09 0.000000000000E+00
     4.339500000000E+05 0.000000000000E+00 0.000000000000E+00 0.000000000000E+00
E01 2019 01 04 00 20 00-5.132094374858E-04-8.142819751811E-12 0.000000000000E+00
     8.200000000000E+01 1.911562500000E+02 2.565821162465E-09 1.834433744374E+00
     8.903443813324E-06 1.175857614726E-04 7.485970854759E-06 5.440623640060E+03
     4.332000000000E+05 9.313225746155E-09-2.824950387323E+00 2.235174179077E-08
     9.903426581011E-01 1.946875000000E+02-8.845973363555E-01-5.289506043444E-09
     1.696499237431E-10 2.580000000000E+02 2.034000000000E+03 0.000000000000E+00
     3.120000000000E+00 0.000000000000E+00-4.656612873077E-09 0.000000000000E+00
     4.341500000000E+05 0.000000000000E+00 0.000000000000E+00 0.000000000000E+00
E01 2019 01 04 00 20 00-5.132099613547E-04-8.142819751811E-12 0.000000000000E+00
     8.200000000000E+01 1.911562500000E+02 2.565821162465E-09 1.834433744374E+00
     8.903443813324E-06 1.175857614726E-04 7.485970854759E-06 5.440623640060E+03
     4.332000000000E+05 9.313225746155E-09-2.824950387323E+00 2.235174179077E-08
     9.903426581011E-01 1.946875000000E+02-8.845973363555E-01-5.289506043444E-09
     1.696499237431E-10 5.210000000000E+02 2.034000000000E+03 0.000000000000E+00
     3.120000000000E+00 0.000000000000E+00-4.656612873077E-09-5.355104804039E-09
     4.341850000000E+05 0.000000000000E+00 0.000000000000E+00 0.000000000000E+00
